KUIPER-00133            
1 65764U 25217C   26011.98104259 -.00004768  00000+0 -59595-3 0  9995
2 65764  51.9049 303.8675 0011550 129.8715 230.3265 14.79919649 16349
KUIPER-00139            
1 65765U 25217D   26011.95534258  .00004069  00000+0  32567-3 0  9991
2 65765  51.8852 293.5985 0008192 123.3193 236.8565 15.02191023 16481
KUIPER-00142            
1 65766U 25217E   26012.00003472 -.00040489  00000+0 -48748-2 0  9993
2 65766  51.8991 286.3883 0001417  23.3990 100.0666 14.83519094  4234
KUIPER-00145            
1 65767U 25217F   26012.00003472 -.00037715  00000+0 -47875-2 0  9992
2 65767  51.8996 288.8092 0000323  61.8636 123.5597 14.81293719  4973
KUIPER-00147            
1 65768U 25217G   26012.00003472 -.00046750  00000+0 -59816-2 0  9990
2 65768  51.8985 291.2988 0000708 110.4718 274.7987 14.81067556  5581
KUIPER-00148            
1 65769U 25217H   26011.93907086  .00009907  00000+0  63230-3 0  9993
2 65769  51.8779 287.6409 0010270 150.1931 209.9630 15.09213969 16560
KUIPER-00150            
1 65770U 25217J   26011.98384025  .00005284  00000+0  72214-3 0  9998
2 65770  51.9024 301.3539 0000896  94.5160 265.5905 14.79896646 16379
KUIPER-00151            
1 65771U 25217K   26011.99189816 -.00000244  00000+0 -29350-5 0  9999
2 65771  51.9024 293.8165 0001020  86.0521 274.0558 14.79931068 16486
